{
  "type": "FeatureCollection",
  "features": [
    {
      "type": "Feature",
      "properties": {
        "norad_id": 43823,
        "name": "GEO-KOMPSAT-2A",
        "group": "weather",
        "lat": -0.03458249080332691,
        "lon": 34.21967226782964,
        "alt_km": 35785.94899502979,
        "timestamp": "2025-12-23T11:34:47.828701+00:00",
        "meta_object_name": "GEO-KOMPSAT-2A",
        "meta_object_id": "2018-100A",
        "meta_epoch": "2025-12-22T22:20:09.233952",
        "meta_mean_motion": 1.00269844,
        "meta_eccentricity": 3.55e-05,
        "meta_inclination": 0.0514,
        "meta_ra_of_asc_node": 125.2489,
        "meta_arg_of_pericenter": 328.4521,
        "meta_mean_anomaly": 101.3281,
        "meta_ephemeris_type": 0,
        "meta_classification_type": "U",
        "meta_norad_cat_id": 43823,
        "meta_element_set_no": 999,
        "meta_rev_at_epoch": 2586,
        "meta_bstar": 0,
        "meta_mean_motion_dot": -3.22e-06,
        "meta_mean_motion_ddot": 0,
        "tle_line1": "1 43823U 18100A   25356.93066243 -.00000322  00000+0  00000+0 0  9990",
        "tle_line2": "2 43823   0.0514 125.2489 0000355 328.4521 101.3281  1.00269844 25862"
      },
      "geometry": {
        "type": "Point",
        "coordinates": [
          34.21967226782964,
          -0.03458249080332691
        ]
      }
    },
    {
      "type": "Feature",
      "properties": {
        "norad_id": 44387,
        "name": "METEOR-M2 2",
        "group": "weather",
        "lat": -12.908639562885751,
        "lon": -20.59955789206116,
        "alt_km": 816.2318828608932,
        "timestamp": "2025-12-23T11:34:47.828718+00:00",
        "meta_object_name": "METEOR-M2 2",
        "meta_object_id": "2019-038A",
        "meta_epoch": "2025-12-23T04:53:49.965792",
        "meta_mean_motion": 14.24296919,
        "meta_eccentricity": 0.0001717,
        "meta_inclination": 98.8978,
        "meta_ra_of_asc_node": 337.061,
        "meta_arg_of_pericenter": 127.6034,
        "meta_mean_anomaly": 232.5301,
        "meta_ephemeris_type": 0,
        "meta_classification_type": "U",
        "meta_norad_cat_id": 44387,
        "meta_element_set_no": 999,
        "meta_rev_at_epoch": 33624,
        "meta_bstar": 0.00022943,
        "meta_mean_motion_dot": 4.84e-06,
        "meta_mean_motion_ddot": 0,
        "tle_line1": "1 44387U 19038A   25357.20405053  .00000484  00000+0  22943-3 0  9996",
        "tle_line2": "2 44387  98.8978 337.0610 0001717 127.6034 232.5301 14.24296919336247"
      },
      "geometry": {
        "type": "Point",
        "coordinates": [
          -20.59955789206116,
          -12.908639562885751
        ]
      }
    },
    {
      "type": "Feature",
      "properties": {
        "norad_id": 47719,
        "name": "ARKTIKA-M 1",
        "group": "weather",
        "lat": 22.34695747449199,
        "lon": -109.39998970767184,
        "alt_km": 11796.679386333373,
        "timestamp": "2025-12-23T11:34:47.828740+00:00",
        "meta_object_name": "ARKTIKA-M 1",
        "meta_object_id": "2021-016A",
        "meta_epoch": "2025-12-22T01:06:25.193952",
        "meta_mean_motion": 2.00630804,
        "meta_eccentricity": 0.72089477,
        "meta_inclination": 63.1758,
        "meta_ra_of_asc_node": 82.7279,
        "meta_arg_of_pericenter": 269.1606,
        "meta_mean_anomaly": 15.5458,
        "meta_ephemeris_type": 0,
        "meta_classification_type": "U",
        "meta_norad_cat_id": 47719,
        "meta_element_set_no": 999,
        "meta_rev_at_epoch": 3523,
        "meta_bstar": 0,
        "meta_mean_motion_dot": -8.3e-07,
        "meta_mean_motion_ddot": 0,
        "tle_line1": "1 47719U 21016A   25356.04612493 -.00000083  00000+0  00000+0 0  9998",
        "tle_line2": "2 47719  63.1758  82.7279 7208947 269.1606  15.5458  2.00630804 35236"
      },
      "geometry": {
        "type": "Point",
        "coordinates": [
          -109.39998970767184,
          22.34695747449199
        ]
      }
    },
    {
      "type": "Feature",
      "properties": {
        "norad_id": 49008,
        "name": "FENGYUN 3E",
        "group": "weather",
        "lat": 43.53251680302055,
        "lon": -173.7132875456463,
        "alt_km": 821.77302570131,
        "timestamp": "2025-12-23T11:34:47.828757+00:00",
        "meta_object_name": "FENGYUN 3E",
        "meta_object_id": "2021-062A",
        "meta_epoch": "2025-12-23T05:52:08.549760",
        "meta_mean_motion": 14.19881364,
        "meta_eccentricity": 8.38e-05,
        "meta_inclination": 98.7471,
        "meta_ra_of_asc_node": 357.6408,
        "meta_arg_of_pericenter": 197.3277,
        "meta_mean_anomaly": 162.7871,
        "meta_ephemeris_type": 0,
        "meta_classification_type": "U",
        "meta_norad_cat_id": 49008,
        "meta_element_set_no": 999,
        "meta_rev_at_epoch": 23161,
        "meta_bstar": 2.078e-05,
        "meta_mean_motion_dot": 0,
        "meta_mean_motion_ddot": 0,
        "tle_line1": "1 49008U 21062A   25357.24454340  .00000000  00000+0  20780-4 0  9990",
        "tle_line2": "2 49008  98.7471 357.6408 0000838 197.3277 162.7871 14.19881364231617"
      },
      "geometry": {
        "type": "Point",
        "coordinates": [
          -173.7132875456463,
          43.53251680302055
        ]
      }
    },
    {
      "type": "Feature",
      "properties": {
        "norad_id": 51850,
        "name": "GOES 18",
        "group": "weather",
        "lat": -0.00532124920394934,
        "lon": 128.9651868924244,
        "alt_km": 35787.68213691366,
        "timestamp": "2025-12-23T11:34:47.828773+00:00",
        "meta_object_name": "GOES 18",
        "meta_object_id": "2022-021A",
        "meta_epoch": "2025-12-23T02:12:34.167168",
        "meta_mean_motion": 1.00270781,
        "meta_eccentricity": 3.38e-05,
        "meta_inclination": 0.0141,
        "meta_ra_of_asc_node": 158.9647,
        "meta_arg_of_pericenter": 168.0068,
        "meta_mean_anomaly": 21.0587,
        "meta_ephemeris_type": 0,
        "meta_classification_type": "U",
        "meta_norad_cat_id": 51850,
        "meta_element_set_no": 999,
        "meta_rev_at_epoch": 482,
        "meta_bstar": 0,
        "meta_mean_motion_dot": 1.18e-06,
        "meta_mean_motion_ddot": 0,
        "tle_line1": "1 51850U 22021A   25357.09206212  .00000118  00000+0  00000+0 0  9998",
        "tle_line2": "2 51850   0.0141 158.9647 0000338 168.0068  21.0587  1.00270781  4823"
      },
      "geometry": {
        "type": "Point",
        "coordinates": [
          128.9651868924244,
          -0.00532124920394934
        ]
      }
    },
    {
      "type": "Feature",
      "properties": {
        "norad_id": 54234,
        "name": "NOAA 21 (JPSS-2)",
        "group": "weather",
        "lat": 50.63831567298584,
        "lon": 124.47615843323574,
        "alt_km": 822.7412413059328,
        "timestamp": "2025-12-23T11:34:47.828789+00:00",
        "meta_object_name": "NOAA 21 (JPSS-2)",
        "meta_object_id": "2022-150A",
        "meta_epoch": "2025-12-23T02:31:07.262688",
        "meta_mean_motion": 14.19526884,
        "meta_eccentricity": 0.0001754,
        "meta_inclination": 98.7477,
        "meta_ra_of_asc_node": 293.2845,
        "meta_arg_of_pericenter": 17.0427,
        "meta_mean_anomaly": 343.0808,
        "meta_ephemeris_type": 0,
        "meta_classification_type": "U",
        "meta_norad_cat_id": 54234,
        "meta_element_set_no": 999,
        "meta_rev_at_epoch": 16156,
        "meta_bstar": 5.9188e-05,
        "meta_mean_motion_dot": 8.1e-07,
        "meta_mean_motion_ddot": 0,
        "tle_line1": "1 54234U 22150A   25357.10494517  .00000081  00000+0  59188-4 0  9994",
        "tle_line2": "2 54234  98.7477 293.2845 0001754  17.0427 343.0808 14.19526884161566"
      },
      "geometry": {
        "type": "Point",
        "coordinates": [
          124.47615843323574,
          50.63831567298584
        ]
      }
    },
    {
      "type": "Feature",
      "properties": {
        "norad_id": 54743,
        "name": "METEOSAT-12 (MTG-I1)",
        "group": "weather",
        "lat": -0.6289955571449141,
        "lon": -94.35472925424783,
        "alt_km": 35779.86154696032,
        "timestamp": "2025-12-23T11:34:47.828806+00:00",
        "meta_object_name": "METEOSAT-12 (MTG-I1)",
        "meta_object_id": "2022-170C",
        "meta_epoch": "2025-12-23T02:51:30.436128",
        "meta_mean_motion": 1.00270796,
        "meta_eccentricity": 0.000155,
        "meta_inclination": 0.6972,
        "meta_ra_of_asc_node": 25.3133,
        "meta_arg_of_pericenter": 240.1988,
        "meta_mean_anomaly": 228.9621,
        "meta_ephemeris_type": 0,
        "meta_classification_type": "U",
        "meta_norad_cat_id": 54743,
        "meta_element_set_no": 999,
        "meta_rev_at_epoch": 1121,
        "meta_bstar": 0,
        "meta_mean_motion_dot": 1.4e-07,
        "meta_mean_motion_ddot": 0,
        "tle_line1": "1 54743U 22170C   25357.11910227  .00000014  00000+0  00000+0 0  9993",
        "tle_line2": "2 54743   0.6972  25.3133 0001550 240.1988 228.9621  1.00270796 11216"
      },
      "geometry": {
        "type": "Point",
        "coordinates": [
          -94.35472925424783,
          -0.6289955571449141
        ]
      }
    }
  ]
}